IRIDIUM 155             
1 43573U 18061E   24115.81991697  .00000052  00000+0  11648-4 0  9991
2 43573  86.4018  24.0566 0002233  83.8359 276.3091 14.34209028301072
IRIDIUM 154             
1 43574U 18061F   24115.80090487  .00000929  00000+0  32474-3 0  9990
2 43574  86.4021  24.1597 0002258  87.7892 272.3563 14.34219263301122
IRIDIUM 163             
1 43575U 18061G   24115.71210140  .00000825  00000+0  28765-3 0  9994
2 43575  86.4020  24.1370 0002319  84.9829 275.1631 14.34221720301081
IRIDIUM 156             
1 43576U 18061H   24115.82627713  .00000555  00000+0  19108-3 0  9996
2 43576  86.4020  24.0952 0002151  85.6751 274.4691 14.34213837301092
IRIDIUM 164             
1 43577U 18061J   24115.66771426  .00000157  00000+0  48873-4 0  9990
2 43577  86.4019  24.1901 0001985  91.9765 268.1658 14.34217212301112
IRIDIUM 159             
1 43578U 18061K   24115.77553260  .00000893  00000+0  31177-3 0  9992
2 43578  86.4015  24.0971 0002186  84.3613 275.7832 14.34213289301092
IRIDIUM 180             
1 43922U 19002A   24115.63547442  .00000681  00000+0  23611-3 0  9990
2 43922  86.3946 321.0682 0002161  90.5999 269.5445 14.34225155276687
IRIDIUM 176             
1 43923U 19002B   24115.49125403  .00002222  00000+0  34818-3 0  9998
2 43923  86.6072 321.1541 0002423  85.5060 274.6434 14.72285584283946
IRIDIUM 168             
1 43924U 19002C   24115.62913499  .00000688  00000+0  23841-3 0  9992
2 43924  86.3949 321.1261 0002111  89.6449 270.4989 14.34225472276664
IRIDIUM 173             
1 43925U 19002D   24115.54668125  .00000732  00000+0  25432-3 0  9995
2 43925  86.3946 321.0816 0002114  89.7414 270.4024 14.34225686276648
IRIDIUM 169             
1 43926U 19002E   24115.63689939  .00001016  00000+0  32542-3 0  9998
2 43926  86.4258 352.6526 0004150  66.7458 293.4177 14.38624771277578
IRIDIUM 172             
1 43927U 19002F   24115.54033993  .00000695  00000+0  24098-3 0  9991
2 43927  86.3945 321.0900 0002105  89.1322 271.0115 14.34225647276640
IRIDIUM 175             
1 43928U 19002G   24115.48552987  .00001244  00000+0  19326-3 0  9993
2 43928  86.1462 297.3235 0002241  84.8155 275.3317 14.72256799283931
IRIDIUM 171             
1 43929U 19002H   24115.52130836  .00000739  00000+0  25675-3 0  9996
2 43929  86.3955 321.3172 0001960  87.4916 272.6504 14.34226137276638
IRIDIUM 170             
1 43930U 19002J   24115.49743151  .00002204  00000+0  34531-3 0  9994
2 43930  86.6072 321.1561 0002339  91.5992 268.5493 14.72286411283951
IRIDIUM 167             
1 43931U 19002K   24115.51496598  .00000734  00000+0  25509-3 0  9999
2 43931  86.3945 321.1154 0002101  89.5147 270.6290 14.34226375276639
IRIDIUM 181             
1 56726U 23068S   24115.66420225  .00001211  00000+0  35173-3 0  9991
2 56726  86.8686  12.1619 0002080  82.8956 277.2482 14.43594457 49414
IRIDIUM 177             
1 56727U 23068T   24115.68476031  .00003031  00000+0  39533-3 0  9996
2 56727  86.1982 340.7756 0001967  93.6345 266.5101 14.80235694 50466
IRIDIUM 174             
1 56728U 23068U   24115.67932420  .00004378  00000+0  57275-3 0  9993
2 56728  86.1992 340.8775 0002761  82.8497 277.3038 14.80214382 50461
IRIDIUM 178             
1 56729U 23068V   24115.60624519  .00003790  00000+0  49476-3 0  9995
2 56729  86.5818 355.8290 0002789  89.4815 270.6726 14.80267957 50453
IRIDIUM 179             
1 56730U 23068W   24115.66844423  .00003664  00000+0  47836-3 0  9999
2 56730  86.6833 359.2605 0003028  92.2044 267.9525 14.80261144 50463
